NORAD_CAT_ID,OBJECT_NAME,OBJECT_TYPE,EPOCH,MEAN_MOTION,ECCENTRICITY,INCLINATION,RA_OF_ASC_NODE,ARG_OF_PERICENTER,MEAN_ANOMALY,BSTAR,MEAN_MOTION_DOT,MEAN_MOTION_DDOT,TLE_LINE0,TLE_LINE1,TLE_LINE2,SEMIMAJOR_AXIS,PERIOD,APOGEE,PERIGEE,DECAYED
51867.0,STARLINK-3590,PAYLOAD,2022-07-25 14:00:01,15.08849384,0.0002387,53.2157,188.7902,49.6163,132.1309,-0.0019454,-0.00031125,0.0,0 STARLINK-3590,1 51867U 22022R   22206.58334491 -.00031125  00000-0 -19454-2 0  9993,2 51867  53.2157 188.7902 0002387  49.6163 132.1309 15.08849384  1309,6917.852,95.437,541.368,538.065,0.0
51867.0,STARLINK-3590,PAYLOAD,2022-07-25 22:00:00,15.08828932,0.0002331999999999,53.216,187.2927,54.9351,138.4065,0.0016673999999999,0.00026341,0.0,0 STARLINK-3590,1 51867U 22022R   22206.91667824  .00026341  00000-0  16674-2 0  9992,2 51867  53.2160 187.2927 0002332  54.9351 138.4065 15.08828932  1306,6917.9140000000025,95.438,541.3919999999998,538.1659999999998,0.0
51867.0,STARLINK-3590,PAYLOAD,2022-07-26 14:00:01,15.08859645,0.0002475,53.2162,184.3009,51.1922,165.3298,-0.0021536,-0.0003441999999999,0.0,0 STARLINK-3590,1 51867U 22022R   22207.58334491 -.00034420  00000-0 -21536-2 0  9999,2 51867  53.2162 184.3009 0002475  51.1922 165.3298 15.08859645  1300,6917.82,95.436,541.398,537.9730000000002,0.0
51867.0,STARLINK-3590,PAYLOAD,2022-07-26 22:00:00,15.08839873,0.000243,53.2166,182.8036,56.2548,171.8706,0.0014044,0.00022134,0.0,0 STARLINK-3590,1 51867U 22022R   22207.91667824  .00022134  00000-0  14044-2 0  9998,2 51867  53.2166 182.8036 0002430  56.2548 171.8706 15.08839873  1305,6917.880999999999,95.438,541.427,538.065,0.0
51867.0,STARLINK-3590,PAYLOAD,2022-07-27 06:00:02,15.08847544,0.0002601,53.2167,181.3089,51.9765,187.8227,-0.00016926,-2.982e-05,0.0,0 STARLINK-3590,1 51867U 22022R   22208.25002315 -.00002982  00000-0 -16926-3 0  9997,2 51867  53.2167 181.3089 0002601  51.9765 187.8227 15.08847544 23618,6917.857,95.437,541.5219999999998,537.923,0.0
51867.0,STARLINK-3590,PAYLOAD,2022-07-27 14:00:01,15.08864729,0.0002467,53.2169,179.8117,51.9629,199.3756,-0.0042058999999999,-0.00066655,0.0,0 STARLINK-3590,1 51867U 22022R   22208.58334491 -.00066655  00000-0 -42059-2 0  9998,2 51867  53.2169 179.8117 0002467  51.9629 199.3756 15.08864729  1304,6917.805,95.436,541.376,537.9630000000002,0.0
51867.0,STARLINK-3590,PAYLOAD,2022-07-27 22:00:00,15.08828144,0.0002387999999999,53.2173,178.3145,56.6321,206.3026,0.0012878,0.0002026,0.0,0 STARLINK-3590,1 51867U 22022R   22208.91667824  .00020260  00000-0  12878-2 0  9990,2 51867  53.2173 178.3145 0002388  56.6321 206.3026 15.08828144  1307,6917.917,95.438,541.434,538.13,0.0
51867.0,STARLINK-3590,PAYLOAD,2022-07-28 08:00:01,15.08813177,0.0002569,53.2174,176.4461,51.699,315.7241,0.0025339,0.00040241,0.0,0 STARLINK-3590,1 51867U 22022R   22209.33334491  .00040241  00000-0  25339-2 0  9995,2 51867  53.2174 176.4461 0002569  51.6990 315.7241 15.08813177 23786,6917.962,95.439,541.605,538.05,0.0
51867.0,STARLINK-3590,PAYLOAD,2022-07-28 14:00:01,15.08852929,0.0002466,53.2174,175.3227,53.5733,232.5302,-0.0022212,-0.00035479,0.0,0 STARLINK-3590,1 51867U 22022R   22209.58334491 -.00035479  00000-0 -22212-2 0  9998,2 51867  53.2174 175.3227 0002466  53.5733 232.5302 15.08852929  1302,6917.840999999999,95.437,541.4119999999998,538.0,0.0
51867.0,STARLINK-3590,PAYLOAD,2022-07-28 22:00:00,15.08841284,0.0002409,53.2177,173.8257,58.5475,239.1505,0.00093541,0.00014631,0.0,0 STARLINK-3590,1 51867U 22022R   22209.91667824  .00014631  00000-0  93541-3 0  9993,2 51867  53.2177 173.8257 0002409  58.5475 239.1505 15.08841284  1306,6917.876,95.437,541.408,538.075,0.0
51867.0,STARLINK-3590,PAYLOAD,2022-07-29 00:00:00,15.08858444,0.0002435999999999,53.2178,173.4523,57.348,333.2453,-0.0012728,-0.00020499,0.0,0 STARLINK-3590,1 51867U 22022R   22210.00001157 -.00020499  00000-0 -12728-2 0  9994,2 51867  53.2178 173.4523 0002436  57.3480 333.2453 15.08858444 23883,6917.824000000001,95.436,541.374,538.004,0.0
51867.0,STARLINK-3590,PAYLOAD,2022-07-29 14:00:01,15.08861739,0.0002418,53.2175,170.8338,55.1907,265.703,-0.0046075,-0.00072922,0.0,0 STARLINK-3590,1 51867U 22022R   22210.58334491 -.00072922  00000-0 -46075-2 0  9997,2 51867  53.2175 170.8338 0002418  55.1907 265.7030 15.08861739  1309,6917.814,95.436,541.352,538.006,0.0
51867.0,STARLINK-3590,PAYLOAD,2022-07-29 22:00:00,15.0882548,0.0002334999999999,53.2178,169.3371,59.2806,273.2001,0.00039094,5.937e-05,0.0,0 STARLINK-3590,1 51867U 22022R   22210.91667824  .00005937  00000-0  39094-3 0  9997,2 51867  53.2178 169.3371 0002335  59.2806 273.2001 15.08825480  1308,6917.925,95.438,541.405,538.174,0.0
51867.0,STARLINK-3590,PAYLOAD,2022-07-30 06:00:00,15.08810525,0.0002516,53.2177,167.8427,55.0091,289.0533,0.0012075,0.00018966,0.0,0 STARLINK-3590,1 51867U 22022R   22211.25001157  .00018966  00000-0  12075-2 0  9991,2 51867  53.2177 167.8427 0002516  55.0091 289.0533 15.08810525 24060,6917.97,95.439,541.576,538.095,0.0
51867.0,STARLINK-3590,PAYLOAD,2022-07-30 14:00:01,15.08834607,0.0002418,53.2174,166.3451,57.3811,298.2491,-0.0016667,-0.00026713,0.0,0 STARLINK-3590,1 51867U 22022R   22211.58334491 -.00026713  00000-0 -16667-2 0  9999,2 51867  53.2174 166.3451 0002418  57.3811 298.2491 15.08834607  1308,6917.897,95.438,541.435,538.089,0.0
51867.0,STARLINK-3590,PAYLOAD,2022-07-30 22:00:00,15.08835693,0.0002398,53.2177,164.8487,61.4072,305.7982,-6.1513e-05,-1.267e-05,0.0,0 STARLINK-3590,1 51867U 22022R   22211.91667824 -.00001267  00000-0 -61513-4 0  9994,2 51867  53.2177 164.8487 0002398  61.4072 305.7982 15.08835693  1300,6917.894,95.438,541.4169999999998,538.1,0.0
51867.0,STARLINK-3590,PAYLOAD,2022-07-31 06:00:02,15.08814518,0.0002562,53.2175,163.3541,57.0362,321.8235,0.0016461,0.00025989,0.0,0 STARLINK-3590,1 51867U 22022R   22212.25002315  .00025989  00000-0  16461-2 0  9995,2 51867  53.2175 163.3541 0002562  57.0362 321.8235 15.08814518 24228,6917.958000000001,95.439,541.596,538.0509999999998,0.0
51867.0,STARLINK-3590,PAYLOAD,2022-07-31 14:00:01,15.088382500000002,0.0002473,53.2173,161.8564,59.707,330.6668,-0.0011675999999999,-0.00018823,0.0,0 STARLINK-3590,1 51867U 22022R   22212.58334491 -.00018823  00000-0 -11676-2 0  9998,2 51867  53.2173 161.8564 0002473  59.7070 330.6668 15.08838250  1301,6917.886,95.438,541.462,538.04,0.0
51867.0,STARLINK-3590,PAYLOAD,2022-07-31 22:00:00,15.08846556,0.0002491,53.2174,160.3601,62.8497,339.1067,-0.00040674,-6.757e-05,0.0,0 STARLINK-3590,1 51867U 22022R   22212.91667824 -.00006757  00000-0 -40674-3 0  9998,2 51867  53.2174 160.3601 0002491  62.8497 339.1067 15.08846556  1301,6917.86,95.437,541.4490000000002,538.002,0.0
51867.0,STARLINK-3590,PAYLOAD,2022-08-01 06:00:00,15.08820882,0.000263,53.2174,158.8654,58.4953,355.0644,0.0022026999999999,0.00034925,0.0,0 STARLINK-3590,1 51867U 22022R   22213.25001157  .00034925  00000-0  22027-2 0  9994,2 51867  53.2174 158.8654 0002630  58.4953 355.0644 15.08820882 24378,6917.939,95.439,541.623,537.984,0.0
51867.0,STARLINK-3590,PAYLOAD,2022-08-01 14:00:01,15.08845478,0.0002541,53.2174,157.3675,61.3589,3.7904,-0.00056335,-9.245e-05,0.0,0 STARLINK-3590,1 51867U 22022R   22213.58334491 -.00009245  00000-0 -56335-3 0  9999,2 51867  53.2174 157.3675 0002541  61.3589   3.7904 15.08845478  1306,6917.864000000001,95.437,541.486,537.971,0.0
51867.0,STARLINK-3590,PAYLOAD,2022-08-01 22:00:00,15.08860502,0.0002597,53.2174,155.8712,63.785,12.9583,-0.00069943,-0.0001141,0.0,0 STARLINK-3590,1 51867U 22022R   22213.91667824 -.00011410  00000-0 -69943-3 0  9991,2 51867  53.2174 155.8712 0002597  63.7850  12.9583 15.08860502 24472,6917.818,95.436,541.479,537.886,0.0
51867.0,STARLINK-3590,PAYLOAD,2022-08-02 14:00:01,15.08839057,0.0002532,53.2176,152.8784,61.8382,38.1299,-0.0015080999999999,-0.0002420999999999,0.0,0 STARLINK-3590,1 51867U 22022R   22214.58334491 -.00024210  00000-0 -15081-2 0  9991,2 51867  53.2176 152.8784 0002532  61.8382  38.1299 15.08839057  1300,6917.8830000000025,95.438,541.5,537.997,0.0
51867.0,STARLINK-3590,PAYLOAD,2022-08-03 06:00:00,15.08812162,0.0002694,53.2176,149.8874,59.191,63.9577,0.0030764,0.00048978,0.0,0 STARLINK-3590,1 51867U 22022R   22215.25001157  .00048978  00000-0  30764-2 0  9996,2 51867  53.2176 149.8874 0002694  59.1910  63.9577 15.08812162 24670,6917.965,95.439,541.694,537.967,0.0
51867.0,STARLINK-3590,PAYLOAD,2022-08-03 14:00:01,15.08836445,0.0002581,53.2178,148.3894,63.2518,71.4854,0.0006172,9.547e-05,0.0,0 STARLINK-3590,1 51867U 22022R   22215.58334491  .00009547  00000-0  61720-3 0  9998,2 51867  53.2178 148.3894 0002581  63.2518  71.4854 15.08836445  1300,6917.891,95.438,541.5419999999998,537.971,0.0
51867.0,STARLINK-3590,PAYLOAD,2022-08-03 22:00:01,15.08862221,0.0002651,53.2179,146.8931,64.9078,81.4817,-0.0011559,-0.0001865,0.0,0 STARLINK-3590,1 51867U 22022R   22215.91668981 -.00018650  00000-0 -11559-2 0  9990,2 51867  53.2179 146.8931 0002651  64.9078  81.4817 15.08862221 24770,6917.812,95.436,541.511,537.844,0.0
51867.0,STARLINK-3590,PAYLOAD,2022-08-04 14:00:01,15.08821083,0.0002514,53.2178,143.9002,64.2367,105.3132,0.0011128,0.00017458,0.0,0 STARLINK-3590,1 51867U 22022R   22216.58334491  .00017458  00000-0  11128-2 0  9995,2 51867  53.2178 143.9002 0002514  64.2367 105.3132 15.08821083  1309,6917.938,95.439,541.5419999999998,538.064,0.0
51867.0,STARLINK-3590,PAYLOAD,2022-08-04 22:00:00,15.0885126,0.0002585,53.218,142.4042,65.7601,115.3648,-0.0013255,-0.00021329,0.0,0 STARLINK-3590,1 51867U 22022R   22216.91667824 -.00021329  00000-0 -13255-2 0  9998,2 51867  53.2180 142.4042 0002585  65.7601 115.3648 15.08851260  1308,6917.846,95.437,541.499,537.923,0.0
51867.0,STARLINK-3590,PAYLOAD,2022-08-05 06:00:02,15.08818674,0.0002665,53.2177,140.909,61.5713,131.2213,0.0031245,0.00049762,0.0,0 STARLINK-3590,1 51867U 22022R   22217.25002315  .00049762  00000-0  31245-2 0  9992,2 51867  53.2177 140.9090 0002665  61.5713 131.2213 15.08818674 24972,6917.946,95.439,541.654,537.967,0.0
